<?xml version="1.0" encoding="UTF-8" standalone="yes"?>
<kml xmlns="http://www.opengis.net/kml/2.2" xmlns:gx="http://www.google.com/kml/ext/2.2" xmlns:atom="http://www.w3.org/2005/Atom" xmlns:xal="urn:oasis:names:tc:ciq:xsdschema:xAL:2.0">
    <Document>
        <name>Z03_CT1-2_rev2</name>
        <visibility>1</visibility>
        <description>This route was generated by the &lt;a href=&quot;http://www.ugcs.com&quot;/&gt;UgCS&lt;/a&gt; for the DJI Mavic 2 Enterprise Advanced vehicle profile.</description>
        <Style id="plineStyle">
            <LineStyle>
                <color>7F00FFFF</color>
                <width>4.0</width>
            </LineStyle>
            <PolyStyle>
                <color>7F00FF00</color>
            </PolyStyle>
        </Style>
        <Placemark>
            <styleUrl>plineStyle</styleUrl>
            <LineString>
                <extrude>1</extrude>
                <tessellate>1</tessellate>
                <altitudeMode>absolute</altitudeMode>
                <coordinates>-70.83707105380184,-33.11310499821035,571.2728881835938 -70.83709640236503,-33.11420230257052,575.8009033203125 -70.83698201480412,-33.11485118853193,573.3101196289062 -70.83694661685516,-33.11310816327245,570.8237915039062 -70.8368203916794,-33.11310788875565,570.4476928710938 -70.83687896079462,-33.115811245724466,576.891845703125 -70.83679282156426,-33.11581300253366,576.897705078125 -70.83674947750612,-33.11581378792147,576.8923950195312 -70.83669299665758,-33.113107975004965,570.2543334960938 -70.83656644705432,-33.11311072879358,570.2899780273438 -70.83662383638068,-33.115815332825065,576.6677856445312 -70.8364957353805,-33.115817476500524,576.2789306640625 -70.83643911466156,-33.113115125339455,570.6424560546875 -70.83631278132688,-33.11311494491852,570.5835571289062 -70.83636793054526,-33.11581878330093,575.8140258789062 -70.83624164986985,-33.115819448943014,575.360107421875 -70.83618657732525,-33.11311706000011,570.4379272460938 -70.83605921114552,-33.11311847264489,570.372314453125 -70.83610377119416,-33.11529841843297,572.9393920898438 -70.83597757614059,-33.115299765290374,572.5846557617188 -70.8359328132046,-33.11312547620422,570.7319946289062 -70.83580639926394,-33.113123619198234,571.1236572265625 -70.83585011219951,-33.11530054079899,572.1400756835938 -70.83572490757253,-33.11530137330661,571.7048950195312 -70.83567884317596,-33.113128943809734,571.5537109375 -70.83555238069788,-33.113124826319954,571.9993896484375 -70.83559699589681,-33.11530422405881,571.27490234375 -70.83546478520073,-33.11530425245508,571.090087890625 -70.83542505487587,-33.11312906789777,572.0 -70.83529756501994,-33.113129062304274,571.8797607421875 -70.83532069342243,-33.11422527444351,571.967529296875 -70.83519398587917,-33.11422600278509,571.710693359375 -70.83517083151011,-33.11313208781714,571.6143798828125 -70.83504416885225,-33.11313400425039,571.158935546875 -70.83506705227379,-33.11422855208089,571.271728515625 -70.83494146668784,-33.114228961992964,570.5564575195312 -70.83491735175748,-33.113134242807156,570.7029418945312 -70.8347919704876,-33.11313682635328,570.2954711914062 -70.83481295865796,-33.11423384976508,569.740966796875 -70.83468560343327,-33.114234173481805,568.9976806640625 -70.834664271759,-33.11314165813051,570.000732421875 -70.83453764576254,-33.113143145246426,570.000732421875 -70.83456059981123,-33.114235985340706,568.8683471679688 -70.8344331090791,-33.1142377806896,568.95849609375 -70.83441196880854,-33.11314808487573,570.1458129882812 -70.83434797915658,-33.113146935398305,570.2341918945312 -70.834283784667,-33.113147635345314,570.3871459960938 -70.83430532725897,-33.11424118355811,569.2333374023438 -70.83417944936791,-33.11424205720658,569.682861328125 -70.83415809121243,-33.11315374273412,570.690673828125 -70.83403102417692,-33.11315349861149,571.1385498046875 -70.83405302420789,-33.11424428698778,570.1206665039062 -70.8339899485363,-33.11424532188001,570.3329467773438 -70.83392576840156,-33.114246167570165,570.5311279296875 -70.83390272782455,-33.1131519380962,571.6036987304688 -70.83377605656881,-33.11315343292051,572.0537719726562 -70.83379843673526,-33.11424642246353,570.8937377929688 -70.8337346228577,-33.11424828973584,571.0338745117188 -70.8336712860221,-33.11424862909105,571.1749877929688 -70.83364894053031,-33.11315942293586,572.4660034179688 -70.83352315870317,-33.11316019823889,572.7213745117188 -70.83355511477369,-33.11478247282839,572.8577880859375 -70.83342751960927,-33.11478225547053,572.9568481445312 -70.8333955097639,-33.11316512174158,572.90234375 -70.83326864435287,-33.113166543600485,573.0011596679688 -70.83330321584089,-33.114784535719615,572.9365234375 -70.83317536043789,-33.11478572406573,572.831787109375 -70.83314274652363,-33.11316754373921,573.0052490234375 -70.83301530153686,-33.113167903096524,573.0891723632812 -70.83304880235545,-33.11478550816337,572.766357421875 -70.83292143032158,-33.11478550199729,572.73486328125 -70.83288767845947,-33.11317411502561,573.2581176757812 -70.83276179147171,-33.113173485564296,573.3167724609375 -70.83279596361942,-33.114793333380725,572.6831665039062 -70.83266956462731,-33.11479471269386,572.2986450195312 -70.83263388329534,-33.11317142988028,573.1151733398438 -70.83250779224741,-33.11317348058296,572.9806518554688 -70.83254061978039,-33.114800107938024,571.916015625 -70.8324911842099,-33.11535146328358,571.9868774414062 -70.83242725767346,-33.11535063768275,571.985595703125 -70.83237978714037,-33.11317955828948,573.1324462890625 -70.83225411571055,-33.1131769624725,573.371826171875 -70.83229956623715,-33.11535853887412,571.9874267578125 -70.83217007409196,-33.11536025053641,571.8099365234375 -70.83212867530551,-33.11318050991119,573.635498046875 -70.83201039695342,-33.11318377484278,573.8724975585938 -70.8320107819114,-33.113706125482985,575.0004272460938 -70.83204591206538,-33.11536077929602,571.5582275390625 -70.83191859673452,-33.11536160945583,571.3207397460938 -70.83188317634911,-33.11318799990803,574.1155395507812 -70.83175875543391,-33.113714314400916,574.33154296875 -70.8317924283996,-33.11536284737868,571.3187866210938 -70.83166385417574,-33.11536300054017,571.4190673828125 -70.83163223903792,-33.11371323930506,573.8765869140625 -70.83150486136269,-33.11371650377158,573.4185791015625 -70.83153643967552,-33.115365888330594,571.643798828125 -70.83141174488667,-33.115367285460685,571.9277954101562 -70.8313640511094,-33.11371105113606,573.2787475585938 -70.83125006904056,-33.1137132910734,573.4999389648438 -70.83128459085108,-33.11536982889103,572.1259155273438 -70.83115744694095,-33.115369755593065,572.307861328125 -70.83113322599665,-33.114243333714825,573.9201049804688 -70.83101428900748,-33.114241725777674,574.3478393554688 -70.83101939320983,-33.114804892344964,574.0097045898438 -70.83103011495233,-33.11537391480058,572.5526733398438 -70.8309005873093,-33.11537484422433,572.8143920898438 -70.83087396406104,-33.114244206447786,574.7970581054688 -70.83075862098885,-33.11423634633287,575.059326171875 -70.83076579356347,-33.1148117595052,574.534423828125 -70.83077690676097,-33.11537390354902,572.8080444335938 -70.83064889344828,-33.11537591912731,572.5859985351562 -70.83063942252309,-33.114814403623306,574.4205322265625 -70.83050697694932,-33.11481566082681,574.1865844726562 -70.83051496009348,-33.11539053663297,572.5533447265625 -70.83036185552561,-33.11539420427981,572.8038940429688 -70.83035627284569,-33.1148065097735,573.9186401367188</coordinates>
            </LineString>
        </Placemark>
    </Document>
</kml>
